NORAD_CAT_ID,OBJECT_NAME,OBJECT_TYPE,EPOCH,MEAN_MOTION,ECCENTRICITY,INCLINATION,RA_OF_ASC_NODE,ARG_OF_PERICENTER,MEAN_ANOMALY,BSTAR,MEAN_MOTION_DOT,MEAN_MOTION_DDOT,TLE_LINE0,TLE_LINE1,TLE_LINE2,SEMIMAJOR_AXIS,PERIOD,APOGEE,PERIGEE,DECAYED
53160.0,STARLINK-4096,PAYLOAD,2022-09-07 04:00:00,15.49891197,0.0001328,53.2154,152.5317,70.5353,234.863,0.0010590999999999,0.00060135,0.0,0 STARLINK-4096,1 53160U 22083AE  22250.16667824  .00060135  00000-0  10591-2 0  9994,2 53160  53.2154 152.5317 0001328  70.5353 234.8630 15.49891197  8758,6795.181,92.91,417.948,416.144,0.0
53160.0,STARLINK-4096,PAYLOAD,2022-09-07 14:00:01,15.49925715,0.0001315999999999,53.2152,150.5382,83.0087,28.5665,-0.00073194,-0.00041831,0.0,0 STARLINK-4096,1 53160U 22083AE  22250.58334491 -.00041831  00000-0 -73194-3 0  9994,2 53160  53.2152 150.5382 0001316  83.0087  28.5665 15.49925715  8824,6795.08,92.908,417.839,416.051,0.0
53160.0,STARLINK-4096,PAYLOAD,2022-09-07 22:00:00,15.49878777,0.000153,53.2154,148.9464,80.7247,91.8026,-0.00024418,-0.00014282,0.0,0 STARLINK-4096,1 53160U 22083AE  22250.91667824 -.00014282  00000-0 -24418-3 0  9995,2 53160  53.2154 148.9464 0001530  80.7247  91.8026 15.49878777  1303,6795.217,92.91,418.122,416.043,0.0
53160.0,STARLINK-4096,PAYLOAD,2022-09-08 14:00:01,15.49862406,0.0001443999999999,53.2154,145.7591,86.2362,208.1081,0.0010847,0.00061547,0.0,0 STARLINK-4096,1 53160U 22083AE  22251.58334491  .00061547  00000-0  10847-2 0  9994,2 53160  53.2154 145.7591 0001444  86.2362 208.1081 15.49862406  1308,6795.265,92.911,418.111,416.149,0.0
53160.0,STARLINK-4096,PAYLOAD,2022-09-08 22:00:00,15.49926767,0.0001438,53.2157,144.1674,80.5539,274.7012,-0.00082366,-0.00046988,0.0,0 STARLINK-4096,1 53160U 22083AE  22251.91667824 -.00046988  00000-0 -82366-3 0  9990,2 53160  53.2157 144.1674 0001438  80.5539 274.7012 15.49926767  1306,6795.0769999999975,92.908,417.919,415.965,0.0
53160.0,STARLINK-4096,PAYLOAD,2022-09-09 14:00:01,15.49844293,0.0001213,53.2159,140.9799,83.9667,33.1428,0.00096565,0.00054659,0.0,0 STARLINK-4096,1 53160U 22083AE  22252.58334491  .00054659  00000-0  96565-3 0  9993,2 53160  53.2159 140.9799 0001213  83.9667  33.1428 15.49844293  1301,6795.318,92.913,418.007,416.359,0.0
53160.0,STARLINK-4096,PAYLOAD,2022-09-09 20:00:01,15.49894196,0.0001298,53.2161,139.7862,80.4239,352.3426,-0.00038644,-0.00022328,0.0,0 STARLINK-4096,1 53160U 22083AE  22252.83334491 -.00022328  00000-0 -38644-3 0  9995,2 53160  53.2161 139.7862 0001298  80.4239 352.3426 15.49894196  9175,6795.172,92.91,417.919,416.155,0.0
53160.0,STARLINK-4096,PAYLOAD,2022-09-09 22:00:00,15.49886279,0.0001301,53.216,139.3885,76.7214,101.2763,-0.00018394,-0.00010877,0.0,0 STARLINK-4096,1 53160U 22083AE  22252.91667824 -.00010877  00000-0 -18394-3 0  9999,2 53160  53.2160 139.3885 0001301  76.7214 101.2763 15.49886279  1306,6795.195,92.91,417.944,416.176,0.0
53160.0,STARLINK-4096,PAYLOAD,2022-09-10 12:00:00,15.49881051,0.0001173,53.2156,136.5992,80.7763,113.8399,0.00087683,0.00049622,0.0,0 STARLINK-4096,1 53160U 22083AE  22253.50001157  .00049622  00000-0  87683-3 0  9991,2 53160  53.2156 136.5992 0001173  80.7763 113.8399 15.49881051  9271,6795.2109999999975,92.91,417.87300000000016,416.279,0.0
53160.0,STARLINK-4096,PAYLOAD,2022-09-10 14:00:01,15.49879279,0.0001196,53.2154,136.2008,82.619,217.2229,0.00089403,0.00050608,0.0,0 STARLINK-4096,1 53160U 22083AE  22253.58334491  .00050608  00000-0  89403-3 0  9997,2 53160  53.2154 136.2008 0001196  82.6190 217.2229 15.49879279  1300,6795.215999999999,92.91,417.894,416.268,0.0
53160.0,STARLINK-4096,PAYLOAD,2022-09-10 22:00:00,15.4992074,0.0001176,53.2152,134.6093,74.0279,286.744,-0.0018001999999999,-0.00101437,0.0,0 STARLINK-4096,1 53160U 22083AE  22253.91667824 -.00101437  00000-0 -18002-2 0  9998,2 53160  53.2152 134.6093 0001176  74.0279 286.7440 15.49920740  1312,6795.095,92.908,417.759,416.161,0.0
53160.0,STARLINK-4096,PAYLOAD,2022-09-11 04:00:00,15.49846822,0.0001121,53.2153,133.4131,64.6433,251.8241,0.00056932,0.00031949,0.0,0 STARLINK-4096,1 53160U 22083AE  22254.16667824  .00031949  00000-0  56932-3 0  9999,2 53160  53.2153 133.4131 0001121  64.6433 251.8241 15.49846822  9374,6795.311,92.912,417.93800000000016,416.414,0.0
53160.0,STARLINK-4096,PAYLOAD,2022-09-11 14:00:01,15.49859188,9.62e-05,53.2145,131.4215,85.6687,36.9269,0.00096102,0.00054421,0.0,0 STARLINK-4096,1 53160U 22083AE  22254.58334491  .00054421  00000-0  96102-3 0  9999,2 53160  53.2145 131.4215 0000962  85.6687  36.9269 15.49859188  1308,6795.275,92.912,417.793,416.486,0.0
53160.0,STARLINK-4096,PAYLOAD,2022-09-11 22:00:00,15.49896357,9.77e-05,53.2146,129.8297,73.9391,109.5637,-2.5367e-05,-1.891e-05,0.0,0 STARLINK-4096,1 53160U 22083AE  22254.91667824 -.00001891  00000-0 -25367-4 0  9996,2 53160  53.2146 129.8297 0000977  73.9391 109.5637 15.49896357  1303,6795.166,92.909,417.695,416.367,0.0
53160.0,STARLINK-4096,PAYLOAD,2022-09-12 12:00:00,15.498652599999998,0.0001072,53.2145,127.0402,82.8571,117.2839,0.00010219,5.349e-05,0.0,0 STARLINK-4096,1 53160U 22083AE  22255.50001157  .00005349  00000-0  10219-3 0  9992,2 53160  53.2145 127.0402 0001072  82.8571 117.2839 15.49865260  9583,6795.257,92.911,417.85,416.393,0.0
53160.0,STARLINK-4096,PAYLOAD,2022-09-12 14:00:01,15.49841746,0.0001177,53.2145,126.6418,86.5738,218.7994,0.00092269,0.00052186,0.0,0 STARLINK-4096,1 53160U 22083AE  22255.58334491  .00052186  00000-0  92269-3 0  9996,2 53160  53.2145 126.6418 0001177  86.5738 218.7994 15.49841746  1301,6795.326,92.913,417.99,416.391,0.0
53160.0,STARLINK-4096,PAYLOAD,2022-09-12 22:00:00,15.50028091,0.0001082999999999,53.2156,125.0474,74.0835,292.1441,-0.0075838,-0.00411108,0.0,0 STARLINK-4096,1 53160U 22083AE  22255.91667824 -.00411108  00000-0 -75838-2 0  9999,2 53160  53.2156 125.0474 0001083  74.0835 292.1441 15.50028091  1309,6794.781,92.902,417.382,415.91,0.0
53160.0,STARLINK-4096,PAYLOAD,2022-09-13 06:00:00,15.49713615,0.0001153,53.2162,123.4514,79.6362,347.5235,-0.0092022,-0.00488431,0.0,0 STARLINK-4096,1 53160U 22083AE  22256.25001157 -.00488431  00000-0 -92022-2 0  9995,2 53160  53.2162 123.4514 0001153  79.6362 347.5235 15.49713615  9706,6795.7,92.92,418.349,416.782,0.0
53160.0,STARLINK-4096,PAYLOAD,2022-09-13 14:00:01,15.49390365,0.0001225,53.2174,121.8558,92.8819,34.7983,-0.020922,-0.01059356,0.0,0 STARLINK-4096,1 53160U 22083AE  22256.58334491 -.01059356  00000-0 -20922-1 0  9991,2 53160  53.2174 121.8558 0001225  92.8819  34.7983 15.49390365  1309,6796.645,92.94,419.343,417.67800000000005,0.0
53160.0,STARLINK-4096,PAYLOAD,2022-09-13 16:00:00,15.49200143,0.0001309,53.2176,121.4582,99.7808,132.9482,-0.021026,-0.01057656,0.0,0 STARLINK-4096,1 53160U 22083AE  22256.66667824 -.01057656  00000-0 -21026-1 0  9996,2 53160  53.2176 121.4582 0001309  99.7808 132.9482 15.49200143  9768,6797.2019999999975,92.951,419.956,418.177,0.0
53160.0,STARLINK-4096,PAYLOAD,2022-09-13 22:00:00,15.48629897,0.0001354,53.2175,120.2665,74.1402,113.3937,-0.02145,-0.01057467,0.0,0 STARLINK-4096,1 53160U 22083AE  22256.91667824 -.01057467  00000-0 -21450-1 0  9995,2 53160  53.2175 120.2665 0001354  74.1402 113.3937 15.48629897  1303,6798.87,92.985,421.656,419.815,0.0
53160.0,STARLINK-4096,PAYLOAD,2022-09-14 14:00:01,15.47109784,0.0001159,53.2176,117.0876,85.3866,219.1196,-0.022571,-0.01055083,0.0,0 STARLINK-4096,1 53160U 22083AE  22257.58334491 -.01055083  00000-0 -22571-1 0  9997,2 53160  53.2176 117.0876 0001159  85.3866 219.1196 15.47109784  9906,6803.323,93.077,425.976,424.399,0.0
53160.0,STARLINK-4096,PAYLOAD,2022-09-14 22:00:00,15.46257602,0.000107,53.2175,115.5045,90.8572,270.8119,-0.020329,-0.00933184,0.0,0 STARLINK-4096,1 53160U 22083AE  22257.91667824 -.00933184  00000-0 -20329-1 0  9998,2 53160  53.2175 115.5045 0001070  90.8572 270.8119 15.46257602  1300,6805.821999999999,93.128,428.416,426.959,0.0
53160.0,STARLINK-4096,PAYLOAD,2022-09-15 14:00:01,15.44838347,0.0001356,53.2167,112.3368,60.129,52.9837,-0.024624,-0.01063191,0.0,0 STARLINK-4096,1 53160U 22083AE  22258.58334491 -.01063191  00000-0 -24624-1 0  9998,2 53160  53.2167 112.3368 0001356  60.1290  52.9837 15.44838347  1303,6809.99,93.214,432.779,430.932,0.0
53160.0,STARLINK-4096,PAYLOAD,2022-09-15 22:00:00,15.44073006,0.0001541,53.2173,110.7575,54.7113,112.7831,-0.025101,-0.01056462,0.0,0 STARLINK-4096,1 53160U 22083AE  22258.91667824 -.01056462  00000-0 -25101-1 0  9998,2 53160  53.2173 110.7575 0001541  54.7113 112.7831 15.44073006 10112,6812.24,93.26,435.155,433.055,0.0
53160.0,STARLINK-4096,PAYLOAD,2022-09-16 14:00:01,15.42553054,0.0001247,53.2174,107.6002,82.0861,191.4286,-0.026361,-0.01068545,0.0,0 STARLINK-4096,1 53160U 22083AE  22259.58334491 -.01068545  00000-0 -26361-1 0  9997,2 53160  53.2174 107.6002 0001247  82.0861 191.4286 15.42553054  1303,6816.714,93.352,439.429,437.729,0.0
53160.0,STARLINK-4096,PAYLOAD,2022-09-16 22:00:00,15.41795288,0.0001224,53.2173,106.0275,68.5284,256.6251,-0.027144,-0.01072223,0.0,0 STARLINK-4096,1 53160U 22083AE  22259.91667824 -.01072223  00000-0 -27144-1 0  9991,2 53160  53.2173 106.0275 0001224  68.5284 256.6251 15.41795288  1302,6818.948,93.398,441.647,439.978,0.0
53160.0,STARLINK-4096,PAYLOAD,2022-09-17 14:00:01,15.40273927,0.0001207,53.2174,102.8811,70.8032,354.8952,-0.028428,-0.01067647,0.0,0 STARLINK-4096,1 53160U 22083AE  22260.58334491 -.01067647  00000-0 -28428-1 0  9997,2 53160  53.2174 102.8811 0001207  70.8032 354.8952 15.40273927  1300,6823.437,93.49,446.126,444.479,0.0
53160.0,STARLINK-4096,PAYLOAD,2022-09-17 22:00:00,15.39516348,0.0001357,53.2175,101.3137,65.3847,49.2144,-0.0292519999999999,-0.01071064,0.0,0 STARLINK-4096,1 53160U 22083AE  22260.91667824 -.01071064  00000-0 -29252-1 0  9997,2 53160  53.2175 101.3137 0001357  65.3847  49.2144 15.39516348 10421,6825.676,93.536,448.467,446.614,0.0
